ONEWEB-0207             
1 48242U 21031AJ  26201.74613451  .00000205  00000+0  51807-3 0  9999
2 48242  87.8968 283.0148 0001942  91.8145 268.3207 13.14501155252708
ONEWEB-0208             
1 48243U 21031AK  26201.72790249 -.00000125  00000+0 -37235-3 0  9991
2 48243  87.8962 283.0231 0002415  99.2286 260.9117 13.14502809252716
ONEWEB-0200             
1 48244U 21031AL  26201.76755641  .00000088  00000+0  20208-3 0  9991
2 48244  87.8977 283.0049 0002115  96.2470 263.8901 13.14502225252646
ONEWEB-0217             
1 48245U 21031AM  26201.93564022 -.00000161  00000+0 -46907-3 0  9990
2 48245  87.8975 282.9756 0002431  99.1107 261.0298 13.14502791252612
ONEWEB-0211             
1 48767U 21045A   26201.94367726  .00008569  00000+0  22466-1 0  9997
2 48767  87.8982 252.3489 0003447 120.1064 240.0409 13.16269499248880
ONEWEB-0223             
1 48768U 21045B   26201.43032477  .00000122  00000+0  28970-3 0  9999
2 48768  87.8985 252.5686 0002328 104.3683 255.7706 13.15548805248774
ONEWEB-0230             
1 48769U 21045C   26201.40180362 -.00000181  00000+0 -51572-3 0  9995
2 48769  87.8979 252.5851 0001893  95.4478 264.6869 13.15548160249033
ONEWEB-0237             
1 48770U 21045D   26201.84705191 -.00000006  00000+0 -49533-4 0  9999
2 48770  87.8978 252.4978 0002333  92.9795 267.1603 13.15548643248812
ONEWEB-0235             
1 48771U 21045E   26201.89773605  .00000160  00000+0  39144-3 0  9995
2 48771  87.8983 252.4765 0002327 108.2337 251.9047 13.15550638248819
ONEWEB-0242             
1 48772U 21045F   26201.89142167  .00000099  00000+0  23006-3 0  9990
2 48772  87.8986 252.4754 0001979 103.0330 257.1021 13.15548964248852
ONEWEB-0241             
1 48773U 21045G   26201.19426522  .00000234  00000+0  58808-3 0  9993
2 48773  87.8975 252.6288 0002384 102.8571 257.2826 13.15540984248678
ONEWEB-0243             
1 48774U 21045H   26201.14984129  .00000007  00000+0 -15081-4 0  9997
2 48774  87.8980 252.6503 0001920 112.5186 247.6148 13.15550975248693
ONEWEB-0222             
1 48775U 21045J   26201.89379804  .00000165  00000+0  40554-3 0  9994
2 48775  87.8991 252.4724 0002185 100.0812 260.0565 13.15547650248835
ONEWEB-0244             
1 48776U 21045K   26201.69177333 -.00000022  00000+0 -91515-4 0  9994
2 48776  87.8994 252.5087 0002063 100.1380 259.9984 13.15548014249375
ONEWEB-0247             
1 48777U 21045L   26201.68858609  .00000009  00000+0 -88681-5 0  9991
2 48777  87.8982 252.5373 0002262 118.6253 241.5105 13.15546709248814
ONEWEB-0245             
1 48778U 21045M   26201.83594746  .00000070  00000+0  15215-3 0  9996
2 48778  87.8989 252.4901 0002207  97.2683 262.8698 13.15549383248809
