{"fetched_at":"2026-07-21T07:06:28.574Z","source":"https://celestrak.org/NORAD/elements/gp.php?GROUP=oneweb&FORMAT=JSON","constellation":"oneweb","records":[{"OBJECT_NAME":"ONEWEB-0207","OBJECT_ID":"2021-031AJ","EPOCH":"2026-07-20T17:54:26.021664","CLASSIFICATION_TYPE":"U","MEAN_MOTION":13.14501155,"ECCENTRICITY":0.00019424,"INCLINATION":87.8968,"RA_OF_ASC_NODE":283.0148,"ARG_OF_PERICENTER":91.8145,"MEAN_ANOMALY":268.3207,"EPHEMERIS_TYPE":0,"NORAD_CAT_ID":48242,"ELEMENT_SET_NO":999,"REV_AT_EPOCH":25270,"BSTAR":0.00051807336,"MEAN_MOTION_DOT":0.00000205,"MEAN_MOTION_DDOT":0},{"OBJECT_NAME":"ONEWEB-0208","OBJECT_ID":"2021-031AK","EPOCH":"2026-07-20T17:28:10.775136","CLASSIFICATION_TYPE":"U","MEAN_MOTION":13.14502809,"ECCENTRICITY":0.00024155,"INCLINATION":87.8962,"RA_OF_ASC_NODE":283.0231,"ARG_OF_PERICENTER":99.2286,"MEAN_ANOMALY":260.9117,"EPHEMERIS_TYPE":0,"NORAD_CAT_ID":48243,"ELEMENT_SET_NO":999,"REV_AT_EPOCH":25271,"BSTAR":-0.00037235197,"MEAN_MOTION_DOT":-0.00000125,"MEAN_MOTION_DDOT":0},{"OBJECT_NAME":"ONEWEB-0200","OBJECT_ID":"2021-031AL","EPOCH":"2026-07-20T18:25:16.873824","CLASSIFICATION_TYPE":"U","MEAN_MOTION":13.14502225,"ECCENTRICITY":0.00021159,"INCLINATION":87.8977,"RA_OF_ASC_NODE":283.0049,"ARG_OF_PERICENTER":96.247,"MEAN_ANOMALY":263.8901,"EPHEMERIS_TYPE":0,"NORAD_CAT_ID":48244,"ELEMENT_SET_NO":999,"REV_AT_EPOCH":25264,"BSTAR":0.00020207761,"MEAN_MOTION_DOT":8.8e-7,"MEAN_MOTION_DDOT":0},{"OBJECT_NAME":"ONEWEB-0217","OBJECT_ID":"2021-031AM","EPOCH":"2026-07-20T22:27:19.315008","CLASSIFICATION_TYPE":"U","MEAN_MOTION":13.14502791,"ECCENTRICITY":0.00024314,"INCLINATION":87.8975,"RA_OF_ASC_NODE":282.9756,"ARG_OF_PERICENTER":99.1107,"MEAN_ANOMALY":261.0298,"EPHEMERIS_TYPE":0,"NORAD_CAT_ID":48245,"ELEMENT_SET_NO":999,"REV_AT_EPOCH":25261,"BSTAR":-0.00046906633,"MEAN_MOTION_DOT":-0.00000161,"MEAN_MOTION_DDOT":0},{"OBJECT_NAME":"ONEWEB-0211","OBJECT_ID":"2021-045A","EPOCH":"2026-07-20T22:38:53.715264","CLASSIFICATION_TYPE":"U","MEAN_MOTION":13.16269499,"ECCENTRICITY":0.00034478,"INCLINATION":87.8982,"RA_OF_ASC_NODE":252.3489,"ARG_OF_PERICENTER":120.1064,"MEAN_ANOMALY":240.0409,"EPHEMERIS_TYPE":0,"NORAD_CAT_ID":48767,"ELEMENT_SET_NO":999,"REV_AT_EPOCH":24888,"BSTAR":0.022466268,"MEAN_MOTION_DOT":0.00008569,"MEAN_MOTION_DDOT":0},{"OBJECT_NAME":"ONEWEB-0223","OBJECT_ID":"2021-045B","EPOCH":"2026-07-20T10:19:40.060128","CLASSIFICATION_TYPE":"U","MEAN_MOTION":13.15548805,"ECCENTRICITY":0.00023283,"INCLINATION":87.8985,"RA_OF_ASC_NODE":252.5686,"ARG_OF_PERICENTER":104.3683,"MEAN_ANOMALY":255.7706,"EPHEMERIS_TYPE":0,"NORAD_CAT_ID":48768,"ELEMENT_SET_NO":999,"REV_AT_EPOCH":24877,"BSTAR":0.00028969952,"MEAN_MOTION_DOT":0.00000122,"MEAN_MOTION_DDOT":0},{"OBJECT_NAME":"ONEWEB-0230","OBJECT_ID":"2021-045C","EPOCH":"2026-07-20T09:38:35.832768","CLASSIFICATION_TYPE":"U","MEAN_MOTION":13.1554816,"ECCENTRICITY":0.00018931,"INCLINATION":87.8979,"RA_OF_ASC_NODE":252.5851,"ARG_OF_PERICENTER":95.4478,"MEAN_ANOMALY":264.6869,"EPHEMERIS_TYPE":0,"NORAD_CAT_ID":48769,"ELEMENT_SET_NO":999,"REV_AT_EPOCH":24903,"BSTAR":-0.00051571851,"MEAN_MOTION_DOT":-0.00000181,"MEAN_MOTION_DDOT":0},{"OBJECT_NAME":"ONEWEB-0237","OBJECT_ID":"2021-045D","EPOCH":"2026-07-20T20:19:45.285024","CLASSIFICATION_TYPE":"U","MEAN_MOTION":13.15548643,"ECCENTRICITY":0.00023338,"INCLINATION":87.8978,"RA_OF_ASC_NODE":252.4978,"ARG_OF_PERICENTER":92.9795,"MEAN_ANOMALY":267.1603,"EPHEMERIS_TYPE":0,"NORAD_CAT_ID":48770,"ELEMENT_SET_NO":999,"REV_AT_EPOCH":24881,"BSTAR":-0.000049532937,"MEAN_MOTION_DOT":-6e-8,"MEAN_MOTION_DDOT":0},{"OBJECT_NAME":"ONEWEB-0235","OBJECT_ID":"2021-045E","EPOCH":"2026-07-20T21:32:44.394720","CLASSIFICATION_TYPE":"U","MEAN_MOTION":13.15550638,"ECCENTRICITY":0.00023278,"INCLINATION":87.8983,"RA_OF_ASC_NODE":252.4765,"ARG_OF_PERICENTER":108.2337,"MEAN_ANOMALY":251.9047,"EPHEMERIS_TYPE":0,"NORAD_CAT_ID":48771,"ELEMENT_SET_NO":999,"REV_AT_EPOCH":24881,"BSTAR":0.00039144045,"MEAN_MOTION_DOT":0.0000016,"MEAN_MOTION_DDOT":0},{"OBJECT_NAME":"ONEWEB-0242","OBJECT_ID":"2021-045F","EPOCH":"2026-07-20T21:23:38.832288","CLASSIFICATION_TYPE":"U","MEAN_MOTION":13.15548964,"ECCENTRICITY":0.0001979,"INCLINATION":87.8986,"RA_OF_ASC_NODE":252.4754,"ARG_OF_PERICENTER":103.033,"MEAN_ANOMALY":257.1021,"EPHEMERIS_TYPE":0,"NORAD_CAT_ID":48772,"ELEMENT_SET_NO":999,"REV_AT_EPOCH":24885,"BSTAR":0.00023005654,"MEAN_MOTION_DOT":9.9e-7,"MEAN_MOTION_DDOT":0},{"OBJECT_NAME":"ONEWEB-0241","OBJECT_ID":"2021-045G","EPOCH":"2026-07-20T04:39:44.515008","CLASSIFICATION_TYPE":"U","MEAN_MOTION":13.15540984,"ECCENTRICITY":0.00023843,"INCLINATION":87.8975,"RA_OF_ASC_NODE":252.6288,"ARG_OF_PERICENTER":102.8571,"MEAN_ANOMALY":257.2826,"EPHEMERIS_TYPE":0,"NORAD_CAT_ID":48773,"ELEMENT_SET_NO":999,"REV_AT_EPOCH":24867,"BSTAR":0.00058808471,"MEAN_MOTION_DOT":0.00000234,"MEAN_MOTION_DDOT":0},{"OBJECT_NAME":"ONEWEB-0243","OBJECT_ID":"2021-045H","EPOCH":"2026-07-20T03:35:46.287456","CLASSIFICATION_TYPE":"U","MEAN_MOTION":13.15550975,"ECCENTRICITY":0.00019206,"INCLINATION":87.898,"RA_OF_ASC_NODE":252.6503,"ARG_OF_PERICENTER":112.5186,"MEAN_ANOMALY":247.6148,"EPHEMERIS_TYPE":0,"NORAD_CAT_ID":48774,"ELEMENT_SET_NO":999,"REV_AT_EPOCH":24869,"BSTAR":-0.00001508139,"MEAN_MOTION_DOT":7e-8,"MEAN_MOTION_DDOT":0},{"OBJECT_NAME":"ONEWEB-0222","OBJECT_ID":"2021-045J","EPOCH":"2026-07-20T21:27:04.150656","CLASSIFICATION_TYPE":"U","MEAN_MOTION":13.1554765,"ECCENTRICITY":0.00021859,"INCLINATION":87.8991,"RA_OF_ASC_NODE":252.4724,"ARG_OF_PERICENTER":100.0812,"MEAN_ANOMALY":260.0565,"EPHEMERIS_TYPE":0,"NORAD_CAT_ID":48775,"ELEMENT_SET_NO":999,"REV_AT_EPOCH":24883,"BSTAR":0.00040554092,"MEAN_MOTION_DOT":0.00000165,"MEAN_MOTION_DDOT":0},{"OBJECT_NAME":"ONEWEB-0244","OBJECT_ID":"2021-045K","EPOCH":"2026-07-20T16:36:09.215712","CLASSIFICATION_TYPE":"U","MEAN_MOTION":13.15548014,"ECCENTRICITY":0.00020636,"INCLINATION":87.8994,"RA_OF_ASC_NODE":252.5087,"ARG_OF_PERICENTER":100.138,"MEAN_ANOMALY":259.9984,"EPHEMERIS_TYPE":0,"NORAD_CAT_ID":48776,"ELEMENT_SET_NO":999,"REV_AT_EPOCH":24937,"BSTAR":-0.00009151515,"MEAN_MOTION_DOT":-2.2e-7,"MEAN_MOTION_DDOT":0},{"OBJECT_NAME":"ONEWEB-0247","OBJECT_ID":"2021-045L","EPOCH":"2026-07-20T16:31:33.838176","CLASSIFICATION_TYPE":"U","MEAN_MOTION":13.15546709,"ECCENTRICITY":0.00022623,"INCLINATION":87.8982,"RA_OF_ASC_NODE":252.5373,"ARG_OF_PERICENTER":118.6253,"MEAN_ANOMALY":241.5105,"EPHEMERIS_TYPE":0,"NORAD_CAT_ID":48777,"ELEMENT_SET_NO":999,"REV_AT_EPOCH":24881,"BSTAR":-0.000008868101,"MEAN_MOTION_DOT":9e-8,"MEAN_MOTION_DDOT":0},{"OBJECT_NAME":"ONEWEB-0245","OBJECT_ID":"2021-045M","EPOCH":"2026-07-20T20:03:45.860544","CLASSIFICATION_TYPE":"U","MEAN_MOTION":13.15549383,"ECCENTRICITY":0.00022073,"INCLINATION":87.8989,"RA_OF_ASC_NODE":252.4901,"ARG_OF_PERICENTER":97.2683,"MEAN_ANOMALY":262.8698,"EPHEMERIS_TYPE":0,"NORAD_CAT_ID":48778,"ELEMENT_SET_NO":999,"REV_AT_EPOCH":24880,"BSTAR":0.00015215115,"MEAN_MOTION_DOT":7e-7,"MEAN_MOTION_DDOT":0}]}
